[3574392004bl86]
absolute_magnitude=19
albedo=0.15
minor_planet_number=357439
name=2004 BL86
orbit_ArgOfPericenter=311.44355000000002
orbit_AscendingNode=126.70717999999999
orbit_Eccentricity=0.4024702
orbit_Epoch=2457800.5
orbit_Inclination=23.774190000000001
orbit_MeanAnomaly=62.219090000000001
orbit_MeanMotion=0.53523620999999999
orbit_SemiMajorAxis=1.5023544
coord_func=comet_orbit
radius=1
type=asteroid

[367943duende]
absolute_magnitude=24.0
albedo=0.15
minor_planet_number=367943
name=Duende
orbit_ArgOfPericenter=195.5985
orbit_AscendingNode=146.96284
orbit_Eccentricity=0.089366699999999993
orbit_Epoch=2457800.5
orbit_Inclination=11.60942
orbit_MeanAnomaly=19.795660000000002
orbit_MeanMotion=1.1348277
orbit_SemiMajorAxis=0.91029629999999995
coord_func=comet_orbit
radius=1
type=asteroid

[3753cruithne]
absolute_magnitude=15.6
albedo=0.365
spec_b=Q
minor_planet_number=3753
name=Cruithne
orbit_ArgOfPericenter=43.82629
orbit_AscendingNode=126.23681999999999
orbit_Eccentricity=0.51490049999999998
orbit_Epoch=2457800.5
orbit_Inclination=19.806439999999998
orbit_MeanAnomaly=59.665280000000003
orbit_MeanMotion=0.98902122999999997
orbit_SemiMajorAxis=0.99769770000000002
orbit_visualization_period=363.9986951530281
coord_func=comet_orbit
radius=1.0355
type=asteroid

[37pforbes]
absolute_magnitude=10.5
albedo=0.1
dust_brightnessfactor=1.5
dust_lengthfactor=0.40000000000000002
dust_widthfactor=1.5
name=37P/Forbes
orbit_ArgOfPericenter=330.02510000000001
orbit_AscendingNode=314.6481
orbit_Eccentricity=0.53455699999999995
orbit_Inclination=8.9649000000000001
orbit_PericenterDistance=1.608033
orbit_TimeAtPericenter=2458242.6413888889
orbit_good=372
coord_func=comet_orbit
radius=5
slope_parameter=4.8
type=comet

[38628huya]
absolute_magnitude=4.8
albedo=0.15
minor_planet_number=38628
name=Huya
orbit_ArgOfPericenter=67.765420000000006
orbit_AscendingNode=169.23410999999999
orbit_Eccentricity=0.28215380000000001
orbit_Epoch=2457800.5
orbit_Inclination=15.46424
orbit_MeanAnomaly=2.9896600000000002
orbit_MeanMotion=0.0039327299999999997
orbit_SemiMajorAxis=39.7502858
orbit_visualization_period=91401.12515814671
coord_func=comet_orbit
radius=360
type=plutino

[3juno]
absolute_magnitude=5.33
albedo=0.214
color_index_bv=0.824
spec_t=S
spec_b=Sk
minor_planet_number=3
name=Juno
orbit_ArgOfPericenter=248.29396
orbit_AscendingNode=169.86255
orbit_Eccentricity=0.25626559999999998
orbit_Epoch=2457400.5
orbit_Inclination=12.98987
orbit_MeanAnomaly=123.46680000000001
orbit_MeanMotion=0.22594094000000001
orbit_SemiMajorAxis=2.6697633000000001
orbit_visualization_period=1592.375560647722
coord_func=comet_orbit
radius=123.298
slope_parameter=0.32
type=asteroid

[4196242010so16]
absolute_magnitude=20.5
albedo=0.14999999999999999
minor_planet_number=419624
name=2010 SO16
orbit_ArgOfPericenter=108.89584000000001
orbit_AscendingNode=40.405369999999998
orbit_Eccentricity=0.075371499999999994
orbit_Epoch=2457800.5
orbit_Inclination=14.52065
orbit_MeanAnomaly=337.07675999999998
orbit_MeanMotion=0.98169443999999995
orbit_SemiMajorAxis=1.0026557
coord_func=comet_orbit
radius=1
type=asteroid

[41ptuttlegiacobinikresak]
absolute_magnitude=10
albedo=0.1
dust_brightnessfactor=1.5
dust_lengthfactor=0.40000000000000002
dust_widthfactor=1.5
name=41P/Tuttle-Giacobini-Kresak
orbit_ArgOfPericenter=62.1464
orbit_AscendingNode=141.0753
orbit_Eccentricity=0.66108199999999995
orbit_Inclination=9.2294
orbit_PericenterDistance=1.0450649999999999
orbit_TimeAtPericenter=2457856.2494907407
orbit_good=195
coord_func=comet_orbit
radius=5
slope_parameter=16
tex_map=gray10.png
type=comet

[433eros]
absolute_magnitude=10.4
albedo=0.25
color=1., 0.849, 0.718
color_index_bv=0.921
spec_t=S
spec_b=S
minor_planet_number=433
name=Eros
orbit_ArgOfPericenter=178.80491000000001
orbit_AscendingNode=304.32652000000002
orbit_Eccentricity=0.22256809999999999
orbit_Epoch=2457800.5
orbit_Inclination=10.827719999999999
orbit_MeanAnomaly=319.31112999999999
orbit_MeanMotion=0.55987624000000002
orbit_SemiMajorAxis=1.4579457
orbit_visualization_period=643.0194421757885
coord_func=comet_orbit
radius=8.42
slope_parameter=0.46
tex_map=eros.png
type=asteroid
rot_pole_ra=11.35
rot_pole_de=17.22
rot_pole_w0=326.07
rot_pole_w1=1639.38864745

[43pwolfharrington]
absolute_magnitude=8
albedo=0.1
dust_brightnessfactor=1.5
dust_lengthfactor=0.40000000000000002
dust_widthfactor=1.5
name=43P/Wolf-Harrington
orbit_ArgOfPericenter=191.6062
orbit_AscendingNode=249.83080000000001
orbit_Eccentricity=0.59457700000000002
orbit_Inclination=15.9651
orbit_PericenterDistance=1.3579829999999999
orbit_TimeAtPericenter=2457620.2041898146
orbit_good=289
coord_func=comet_orbit
radius=5
slope_parameter=6
type=comet

[45phondamrkospajdusakova]
absolute_magnitude=13.5
albedo=0.1
dust_brightnessfactor=1.5
dust_lengthfactor=0.40000000000000002
dust_widthfactor=1.5
name=45P/Honda-Mrkos-Pajdusakova
orbit_ArgOfPericenter=326.26569999999998
orbit_AscendingNode=89.006100000000004
orbit_Eccentricity=0.82393300000000003
orbit_Inclination=4.2495000000000003
orbit_PericenterDistance=0.53256000000000003
orbit_TimeAtPericenter=2457753.6887962963
orbit_good=70
coord_func=comet_orbit
radius=5
slope_parameter=8
type=comet

[4692192016hq3]
absolute_magnitude=24.199999999999999
albedo=0.14999999999999999
minor_planet_number=469219
name=2016 HO3
orbit_ArgOfPericenter=307.22764000000001
orbit_AscendingNode=66.513210000000001
orbit_Eccentricity=0.1041435
orbit_Epoch=2457600.5
orbit_Inclination=7.7714400000000001
orbit_MeanAnomaly=297.53217999999998
orbit_MeanMotion=0.98379205000000003
orbit_SemiMajorAxis=1.0012300000000001
coord_func=comet_orbit
radius=1
type=asteroid

[48pjohnson]
absolute_magnitude=10
albedo=0.1
dust_brightnessfactor=1.5
dust_lengthfactor=0.40000000000000002
dust_widthfactor=1.5
name=48P/Johnson
orbit_ArgOfPericenter=215.9829
orbit_AscendingNode=110.44450000000001
orbit_Eccentricity=0.42796800000000002
orbit_Inclination=12.1997
orbit_PericenterDistance=2.006513
orbit_TimeAtPericenter=2458341.6448958335
orbit_good=519
coord_func=comet_orbit
radius=5
slope_parameter=6
type=comet

[4vesta]
absolute_magnitude=3.0
albedo=0.4228
color_index_bv=0.782
spec_t=V
spec_b=V
minor_planet_number=4
name=Vesta
model=4vesta_21_MLfix.obj
oblateness=0.0
orbit_ArgOfPericenter=151.19843
orbit_AscendingNode=103.85141
orbit_Eccentricity=0.0887401
orbit_Epoch=2457000.5
orbit_Inclination=7.14043
orbit_MeanAnomaly=20.86389
orbit_MeanMotion=0.27154465
orbit_SemiMajorAxis=2.3617933
orbit_visualization_period=1325.314867254217
coord_func=comet_orbit
radius=262.7
slope_parameter=0.32
tex_map=vesta.png # This preliminary file has been shifted 150 degrees eastward
rot_rotation_offset=210
rot_pole_ra=309.031
rot_pole_de=42.235
rot_pole_w0=285.39
rot_pole_w1=1617.3329428
type=asteroid

[50000quaoar]
absolute_magnitude=2.4
albedo=0.16
minor_planet_number=50000
name=Quaoar
orbit_ArgOfPericenter=150.81147000000001
orbit_AscendingNode=188.75203999999999
orbit_Eccentricity=0.035749900000000001
orbit_Epoch=2457800.5
orbit_Inclination=7.9864899999999999
orbit_MeanAnomaly=293.39076
orbit_MeanMotion=0.0034350800000000001
orbit_SemiMajorAxis=43.502213699999999
orbit_visualization_period=104638.6456476030
coord_func=comet_orbit
radius=1037
type=cubewano

[51pharrington]
absolute_magnitude=10
albedo=0.1
dust_brightnessfactor=1.5
dust_lengthfactor=0.4
dust_widthfactor=1.5
name=51P/Harrington
orbit_ArgOfPericenter=269.3006
orbit_AscendingNode=83.6948
orbit_Eccentricity=0.542437
orbit_Inclination=5.4243
orbit_PericenterDistance=1.699445
orbit_TimeAtPericenter=2457246.95459491
orbit_good=404
coord_func=comet_orbit
radius=5
slope_parameter=8
type=comet

[5261eureka]
absolute_magnitude=16.1
albedo=0.182
spec_b=Sr
minor_planet_number=5261
name=Eureka
orbit_ArgOfPericenter=95.53819
orbit_AscendingNode=245.04716999999999
orbit_Eccentricity=0.064755999999999994
orbit_Epoch=2457600.5
orbit_Inclination=20.280930000000001
orbit_MeanAnomaly=250.03091000000001
orbit_MeanMotion=0.52411010000000002
orbit_SemiMajorAxis=1.5235418000000001
coord_func=comet_orbit
radius=0.939
type=asteroid

[53pvanbiesbroeck]
absolute_magnitude=7.7
albedo=0.1
dust_brightnessfactor=1.5
dust_lengthfactor=0.40000000000000002
dust_widthfactor=1.5
name=53P/Van Biesbroeck
orbit_ArgOfPericenter=134.20330000000001
orbit_AscendingNode=148.9228
orbit_Eccentricity=0.55179199999999995
orbit_Inclination=6.6082000000000001
orbit_PericenterDistance=2.42713
orbit_TimeAtPericenter=2457508.4619907406
orbit_good=690
coord_func=comet_orbit
radius=5
slope_parameter=4.8
type=comet

